[{"OBJECT_NAME":"STARLINK-30842","OBJECT_ID":"2023-177G","EPOCH":"2026-03-09T01:38:07.538784","MEAN_MOTION":15.24412214,"ECCENTRICITY":0.00013538,"INCLINATION":42.9998,"RA_OF_ASC_NODE":339.3436,"ARG_OF_PERICENTER":241.6779,"MEAN_ANOMALY":118.3935,"EPHEMERIS_TYPE":0,"CLASSIFICATION_TYPE":"U","NORAD_CAT_ID":58357,"ELEMENT_SET_NO":999,"REV_AT_EPOCH":12830,"BSTAR":0.00059008247,"MEAN_MOTION_DOT":0.00014531,"MEAN_MOTION_DDOT":0},{"OBJECT_NAME":"OBJECT AF","OBJECT_ID":"2025-313AF","EPOCH":"2026-03-09T22:40:24.568320","MEAN_MOTION":15.21283036,"ECCENTRICITY":0.00138127,"INCLINATION":97.398,"RA_OF_ASC_NODE":145.1678,"ARG_OF_PERICENTER":3.4276,"MEAN_ANOMALY":356.7052,"EPHEMERIS_TYPE":0,"CLASSIFICATION_TYPE":"U","NORAD_CAT_ID":67277,"ELEMENT_SET_NO":999,"REV_AT_EPOCH":1085,"BSTAR":0.00037771518,"MEAN_MOTION_DOT":8.4e-5,"MEAN_MOTION_DDOT":0}]
